OBJECT_NAME,OBJECT_ID,EPOCH,MEAN_MOTION,ECCENTRICITY,INCLINATION,RA_OF_ASC_NODE,ARG_OF_PERICENTER,MEAN_ANOMALY,EPHEMERIS_TYPE,CLASSIFICATION_TYPE,NORAD_CAT_ID,ELEMENT_SET_NO,REV_AT_EPOCH,BSTAR,MEAN_MOTION_DOT,MEAN_MOTION_DDOT
SPACEMOBILE-004,2024-163E,2026-07-04T09:12:44.398944,15.20796566,.00076983,52.9655,229.8431,188.3855,171.7012,0,U,61049,999,10038,.77373269E-3,.16997E-3,0
CZ-8A R/B,2025-231K,2026-07-04T15:50:55.661280,14.30160215,.01164968,50.0053,324.9779,285.5204,73.2874,0,U,66004,999,3744,.7716237E-4,.53E-6,0
SZ-21 MODULE,2025-246C,2026-07-04T02:57:17.274240,15.77879108,.00055149,41.4707,201.7323,137.2881,222.8393,0,U,66515,999,3641,.31913879E-3,.55651E-3,0
SPACEMOBILE-006,2025-309A,2026-07-04T11:36:29.751552,15.18634601,.00107329,52.9967,252.4055,180.2768,179.8221,0,U,67232,999,2922,.12763784E-3,.2357E-4,0
SPACEMOBILE-008,2026-139A,2026-07-04T09:13:08.262624,15.12790222,.00045109,52.9936,184.4910,29.9217,330.2031,0,U,69589,999,258,.37302493E-4,.361E-5,0
SPACEMOBILE-009,2026-139B,2026-07-04T09:14:51.910656,15.12683536,.00047264,52.9927,184.4943,24.8086,335.3132,0,U,69590,999,258,.38236002E-4,.376E-5,0
SPACEMOBILE-010,2026-139C,2026-07-04T09:17:36.610656,15.12514703,.00045897,52.9931,184.5084,15.7299,344.3834,0,U,69591,999,259,.40504206E-4,.413E-5,0
