SPACEMOBILE-004         
1 61049U 24163E   26185.38384721  .00016997  00000+0  77373-3 0  9995
2 61049  52.9655 229.8431 0007698 188.3855 171.7012 15.20796566100389
CZ-8A R/B               
1 66004U 25231K   26185.66036645  .00000053  00000+0  77162-4 0  9991
2 66004  50.0053 324.9779 0116496 285.5204  73.2874 14.30160215 37447
SZ-21 MODULE            
1 66515U 25246C   26185.12311660  .00055651  00000+0  31914-3 0  9996
2 66515  41.4707 201.7323 0005514 137.2881 222.8393 15.77879108 36417
SPACEMOBILE-006         
1 67232U 25309A   26185.48367768  .00002357  00000+0  12764-3 0  9999
2 67232  52.9967 252.4055 0010732 180.2768 179.8221 15.18634601 29228
SPACEMOBILE-008         
1 69589U 26139A   26185.38412341  .00000361  00000+0  37302-4 0  9994
2 69589  52.9936 184.4910 0004510  29.9217 330.2031 15.12790222  2588
SPACEMOBILE-009         
1 69590U 26139B   26185.38532304  .00000376  00000+0  38236-4 0  9991
2 69590  52.9927 184.4943 0004726  24.8086 335.3132 15.12683536  2580
SPACEMOBILE-010         
1 69591U 26139C   26185.38722929  .00000413  00000+0  40504-4 0  9999
2 69591  52.9931 184.5084 0004589  15.7299 344.3834 15.12514703  2594
